[{"OBJECT_NAME":"CYGFM04","OBJECT_ID":"2016-078B","EPOCH":"2026-03-09T16:26:53.872800","MEAN_MOTION":15.55625128,"ECCENTRICITY":0.00057915,"INCLINATION":34.9324,"RA_OF_ASC_NODE":169.3835,"ARG_OF_PERICENTER":320.2308,"MEAN_ANOMALY":39.7991,"EPHEMERIS_TYPE":0,"CLASSIFICATION_TYPE":"U","NORAD_CAT_ID":41885,"ELEMENT_SET_NO":999,"REV_AT_EPOCH":51346,"BSTAR":0.0004416761,"MEAN_MOTION_DOT":0.00031406,"MEAN_MOTION_DDOT":0},{"OBJECT_NAME":"STARLINK-36548","OBJECT_ID":"2026-020A","EPOCH":"2026-03-09T22:00:01.999584","MEAN_MOTION":15.6537729,"ECCENTRICITY":0.00012178,"INCLINATION":42.9995,"RA_OF_ASC_NODE":141.0362,"ARG_OF_PERICENTER":274.5586,"MEAN_ANOMALY":288.7146,"EPHEMERIS_TYPE":0,"CLASSIFICATION_TYPE":"U","NORAD_CAT_ID":67617,"ELEMENT_SET_NO":999,"REV_AT_EPOCH":604,"BSTAR":-0.021753311,"MEAN_MOTION_DOT":-0.01966984,"MEAN_MOTION_DDOT":0}]
